[{"OBJECT_NAME":"ONEWEB-0527","OBJECT_ID":"2022-166A","EPOCH":"2025-08-26T17:05:46.379040","MEAN_MOTION":13.21828473,"ECCENTRICITY":0.000189,"INCLINATION":87.924,"RA_OF_ASC_NODE":302.7634,"ARG_OF_PERICENTER":97.594,"MEAN_ANOMALY":262.5409,"EPHEMERIS_TYPE":0,"CLASSIFICATION_TYPE":"U","NORAD_CAT_ID":54642,"ELEMENT_SET_NO":999,"REV_AT_EPOCH":13263,"BSTAR":-0.00016211641,"MEAN_MOTION_DOT":-5.4e-7,"MEAN_MOTION_DDOT":0},{"OBJECT_NAME":"ONEWEB-0528","OBJECT_ID":"2022-166B","EPOCH":"2025-08-26T20:52:52.502304","MEAN_MOTION":13.21828572,"ECCENTRICITY":0.00018526,"INCLINATION":87.9242,"RA_OF_ASC_NODE":302.7339,"ARG_OF_PERICENTER":95.3129,"MEAN_ANOMALY":264.8216,"EPHEMERIS_TYPE":0,"CLASSIFICATION_TYPE":"U","NORAD_CAT_ID":54643,"ELEMENT_SET_NO":999,"REV_AT_EPOCH":13266,"BSTAR":5.360486e-5,"MEAN_MOTION_DOT":3.5e-7,"MEAN_MOTION_DDOT":0},{"OBJECT_NAME":"ONEWEB-0539","OBJECT_ID":"2022-166C","EPOCH":"2025-08-26T16:18:08.293824","MEAN_MOTION":13.2182514,"ECCENTRICITY":0.00021551,"INCLINATION":87.9234,"RA_OF_ASC_NODE":302.7417,"ARG_OF_PERICENTER":94.1354,"MEAN_ANOMALY":266.0026,"EPHEMERIS_TYPE":0,"CLASSIFICATION_TYPE":"U","NORAD_CAT_ID":54644,"ELEMENT_SET_NO":999,"REV_AT_EPOCH":13263,"BSTAR":2.3044061e-5,"MEAN_MOTION_DOT":2.3e-7,"MEAN_MOTION_DDOT":0},{"OBJECT_NAME":"ONEWEB-0540","OBJECT_ID":"2022-166D","EPOCH":"2025-08-26T21:54:24.461568","MEAN_MOTION":13.2182764,"ECCENTRICITY":0.00021581,"INCLINATION":87.9242,"RA_OF_ASC_NODE":302.7307,"ARG_OF_PERICENTER":93.9637,"MEAN_ANOMALY":266.1744,"EPHEMERIS_TYPE":0,"CLASSIFICATION_TYPE":"U","NORAD_CAT_ID":54645,"ELEMENT_SET_NO":999,"REV_AT_EPOCH":13265,"BSTAR":0.00011657359,"MEAN_MOTION_DOT":6.1e-7,"MEAN_MOTION_DDOT":0},{"OBJECT_NAME":"ONEWEB-0542","OBJECT_ID":"2022-166E","EPOCH":"2025-08-26T21:58:45.265152","MEAN_MOTION":13.21827816,"ECCENTRICITY":0.00023358,"INCLINATION":87.9234,"RA_OF_ASC_NODE":302.6921,"ARG_OF_PERICENTER":96.034,"MEAN_ANOMALY":264.1061,"EPHEMERIS_TYPE":0,"CLASSIFICATION_TYPE":"U","NORAD_CAT_ID":54646,"ELEMENT_SET_NO":999,"REV_AT_EPOCH":13266,"BSTAR":0.00028741824,"MEAN_MOTION_DOT":1.32e-6,"MEAN_MOTION_DDOT":0},{"OBJECT_NAME":"ONEWEB-0545","OBJECT_ID":"2022-166F","EPOCH":"2025-08-26T21:11:02.790816","MEAN_MOTION":13.21828546,"ECCENTRICITY":0.00024655,"INCLINATION":87.924,"RA_OF_ASC_NODE":302.7165,"ARG_OF_PERICENTER":89.8953,"MEAN_ANOMALY":270.2464,"EPHEMERIS_TYPE":0,"CLASSIFICATION_TYPE":"U","NORAD_CAT_ID":54647,"ELEMENT_SET_NO":999,"REV_AT_EPOCH":13262,"BSTAR":1.0162982e-5,"MEAN_MOTION_DOT":1.7e-7,"MEAN_MOTION_DDOT":0},{"OBJECT_NAME":"ONEWEB-0580","OBJECT_ID":"2022-166G","EPOCH":"2025-08-26T22:21:28.747872","MEAN_MOTION":13.21826874,"ECCENTRICITY":0.00023538,"INCLINATION":87.924,"RA_OF_ASC_NODE":302.7046,"ARG_OF_PERICENTER":97.6324,"MEAN_ANOMALY":262.5077,"EPHEMERIS_TYPE":0,"CLASSIFICATION_TYPE":"U","NORAD_CAT_ID":54648,"ELEMENT_SET_NO":999,"REV_AT_EPOCH":13267,"BSTAR":-6.1659271e-5,"MEAN_MOTION_DOT":-1.2e-7,"MEAN_MOTION_DDOT":0},{"OBJECT_NAME":"ONEWEB-0582","OBJECT_ID":"2022-166H","EPOCH":"2025-08-26T16:06:45.522144","MEAN_MOTION":13.21827802,"ECCENTRICITY":0.00025214,"INCLINATION":87.9232,"RA_OF_ASC_NODE":302.7522,"ARG_OF_PERICENTER":96.9557,"MEAN_ANOMALY":263.1864,"EPHEMERIS_TYPE":0,"CLASSIFICATION_TYPE":"U","NORAD_CAT_ID":54649,"ELEMENT_SET_NO":999,"REV_AT_EPOCH":13261,"BSTAR":0.00013063711,"MEAN_MOTION_DOT":6.7e-7,"MEAN_MOTION_DDOT":0},{"OBJECT_NAME":"ONEWEB-0583","OBJECT_ID":"2022-166J","EPOCH":"2025-08-26T16:22:41.472480","MEAN_MOTION":13.21827053,"ECCENTRICITY":0.00020637,"INCLINATION":87.924,"RA_OF_ASC_NODE":302.7733,"ARG_OF_PERICENTER":94.0278,"MEAN_ANOMALY":266.1092,"EPHEMERIS_TYPE":0,"CLASSIFICATION_TYPE":"U","NORAD_CAT_ID":54650,"ELEMENT_SET_NO":999,"REV_AT_EPOCH":13262,"BSTAR":9.099361e-6,"MEAN_MOTION_DOT":1.7e-7,"MEAN_MOTION_DDOT":0},{"OBJECT_NAME":"ONEWEB-0584","OBJECT_ID":"2022-166K","EPOCH":"2025-08-26T22:19:10.951968","MEAN_MOTION":13.21828069,"ECCENTRICITY":0.00023899,"INCLINATION":87.9242,"RA_OF_ASC_NODE":302.7083,"ARG_OF_PERICENTER":99.3489,"MEAN_ANOMALY":260.7915,"EPHEMERIS_TYPE":0,"CLASSIFICATION_TYPE":"U","NORAD_CAT_ID":54651,"ELEMENT_SET_NO":999,"REV_AT_EPOCH":13264,"BSTAR":0.00016300758,"MEAN_MOTION_DOT":8.0e-7,"MEAN_MOTION_DDOT":0},{"OBJECT_NAME":"ONEWEB-0585","OBJECT_ID":"2022-166L","EPOCH":"2025-08-26T17:28:32.441664","MEAN_MOTION":13.21825782,"ECCENTRICITY":0.00018329,"INCLINATION":87.924,"RA_OF_ASC_NODE":302.7346,"ARG_OF_PERICENTER":98.591,"MEAN_ANOMALY":261.5432,"EPHEMERIS_TYPE":0,"CLASSIFICATION_TYPE":"U","NORAD_CAT_ID":54652,"ELEMENT_SET_NO":999,"REV_AT_EPOCH":13262,"BSTAR":5.6231924e-5,"MEAN_MOTION_DOT":3.6e-7,"MEAN_MOTION_DDOT":0},{"OBJECT_NAME":"ONEWEB-0586","OBJECT_ID":"2022-166M","EPOCH":"2025-08-26T21:24:42.192864","MEAN_MOTION":13.21827611,"ECCENTRICITY":0.00021738,"INCLINATION":87.9241,"RA_OF_ASC_NODE":302.7262,"ARG_OF_PERICENTER":94.9137,"MEAN_ANOMALY":265.2246,"EPHEMERIS_TYPE":0,"CLASSIFICATION_TYPE":"U","NORAD_CAT_ID":54653,"ELEMENT_SET_NO":999,"REV_AT_EPOCH":13264,"BSTAR":0.00013483652,"MEAN_MOTION_DOT":6.9e-7,"MEAN_MOTION_DDOT":0},{"OBJECT_NAME":"ONEWEB-0587","OBJECT_ID":"2022-166N","EPOCH":"2025-08-26T21:38:17.022624","MEAN_MOTION":13.21821078,"ECCENTRICITY":0.00017585,"INCLINATION":87.9241,"RA_OF_ASC_NODE":302.6724,"ARG_OF_PERICENTER":100.4936,"MEAN_ANOMALY":259.6396,"EPHEMERIS_TYPE":0,"CLASSIFICATION_TYPE":"U","NORAD_CAT_ID":54654,"ELEMENT_SET_NO":999,"REV_AT_EPOCH":13280,"BSTAR":0.00010959305,"MEAN_MOTION_DOT":5.8e-7,"MEAN_MOTION_DDOT":0},{"OBJECT_NAME":"ONEWEB-0589","OBJECT_ID":"2022-166P","EPOCH":"2025-08-26T21:20:09.240576","MEAN_MOTION":13.21827628,"ECCENTRICITY":0.00028697,"INCLINATION":87.9239,"RA_OF_ASC_NODE":302.7188,"ARG_OF_PERICENTER":99.7404,"MEAN_ANOMALY":260.4054,"EPHEMERIS_TYPE":0,"CLASSIFICATION_TYPE":"U","NORAD_CAT_ID":54655,"ELEMENT_SET_NO":999,"REV_AT_EPOCH":13266,"BSTAR":0.00023801222,"MEAN_MOTION_DOT":1.11e-6,"MEAN_MOTION_DDOT":0},{"OBJECT_NAME":"ONEWEB-0590","OBJECT_ID":"2022-166Q","EPOCH":"2025-08-26T21:54:01.670112","MEAN_MOTION":13.21824611,"ECCENTRICITY":0.00020755,"INCLINATION":87.9236,"RA_OF_ASC_NODE":302.6908,"ARG_OF_PERICENTER":111.0067,"MEAN_ANOMALY":249.1289,"EPHEMERIS_TYPE":0,"CLASSIFICATION_TYPE":"U","NORAD_CAT_ID":54656,"ELEMENT_SET_NO":999,"REV_AT_EPOCH":13265,"BSTAR":8.417846e-5,"MEAN_MOTION_DOT":4.8e-7,"MEAN_MOTION_DDOT":0},{"OBJECT_NAME":"ONEWEB-0591","OBJECT_ID":"2022-166R","EPOCH":"2025-08-26T22:12:22.522752","MEAN_MOTION":13.21828854,"ECCENTRICITY":0.00022044,"INCLINATION":87.9239,"RA_OF_ASC_NODE":302.712,"ARG_OF_PERICENTER":99.9825,"MEAN_ANOMALY":260.1558,"EPHEMERIS_TYPE":0,"CLASSIFICATION_TYPE":"U","NORAD_CAT_ID":54657,"ELEMENT_SET_NO":999,"REV_AT_EPOCH":13268,"BSTAR":6.7144742e-5,"MEAN_MOTION_DOT":4.1e-7,"MEAN_MOTION_DDOT":0},{"OBJECT_NAME":"ONEWEB-0592","OBJECT_ID":"2022-166S","EPOCH":"2025-08-26T16:49:54.988032","MEAN_MOTION":13.21827314,"ECCENTRICITY":0.00021165,"INCLINATION":87.9246,"RA_OF_ASC_NODE":302.7101,"ARG_OF_PERICENTER":99.3627,"MEAN_ANOMALY":260.7746,"EPHEMERIS_TYPE":0,"CLASSIFICATION_TYPE":"U","NORAD_CAT_ID":54658,"ELEMENT_SET_NO":999,"REV_AT_EPOCH":13253,"BSTAR":-2.2466403e-5,"MEAN_MOTION_DOT":4.0e-8,"MEAN_MOTION_DDOT":0}]
