ONEWEB-0527             
1 54642U 22166A   25238.71234235 -.00000054  00000+0 -16212-3 0  9990
2 54642  87.9240 302.7634 0001890  97.5940 262.5409 13.21828473132632
ONEWEB-0528             
1 54643U 22166B   25238.87005211  .00000035  00000+0  53605-4 0  9993
2 54643  87.9242 302.7339 0001852  95.3129 264.8216 13.21828572132664
ONEWEB-0539             
1 54644U 22166C   25238.67926266  .00000023  00000+0  23044-4 0  9995
2 54644  87.9234 302.7417 0002155  94.1354 266.0026 13.21825140132635
ONEWEB-0540             
1 54645U 22166D   25238.91278312  .00000061  00000+0  11657-3 0  9993
2 54645  87.9242 302.7307 0002158  93.9637 266.1744 13.21827640132654
ONEWEB-0542             
1 54646U 22166E   25238.91580168  .00000132  00000+0  28742-3 0  9991
2 54646  87.9234 302.6921 0002335  96.0340 264.1061 13.21827816132665
ONEWEB-0545             
1 54647U 22166F   25238.88267119  .00000017  00000+0  10163-4 0  9997
2 54647  87.9240 302.7165 0002465  89.8953 270.2464 13.21828546132620
ONEWEB-0580             
1 54648U 22166G   25238.93158273 -.00000012  00000+0 -61659-4 0  9997
2 54648  87.9240 302.7046 0002353  97.6324 262.5077 13.21826874132675
ONEWEB-0582             
1 54649U 22166H   25238.67136021  .00000067  00000+0  13064-3 0  9990
2 54649  87.9232 302.7522 0002521  96.9557 263.1864 13.21827802132610
ONEWEB-0583             
1 54650U 22166J   25238.68242445  .00000017  00000+0  90994-5 0  9995
2 54650  87.9240 302.7733 0002063  94.0278 266.1092 13.21827053132620
ONEWEB-0584             
1 54651U 22166K   25238.92998787  .00000080  00000+0  16301-3 0  9998
2 54651  87.9242 302.7083 0002389  99.3489 260.7915 13.21828069132648
ONEWEB-0585             
1 54652U 22166L   25238.72815326  .00000036  00000+0  56232-4 0  9993
2 54652  87.9240 302.7346 0001832  98.5910 261.5432 13.21825782132621
ONEWEB-0586             
1 54653U 22166M   25238.89215501  .00000069  00000+0  13484-3 0  9998
2 54653  87.9241 302.7262 0002173  94.9137 265.2246 13.21827611132649
ONEWEB-0587             
1 54654U 22166N   25238.90158591  .00000058  00000+0  10959-3 0  9998
2 54654  87.9241 302.6724 0001758 100.4936 259.6396 13.21821078132802
ONEWEB-0589             
1 54655U 22166P   25238.88899584  .00000111  00000+0  23801-3 0  9990
2 54655  87.9239 302.7188 0002869  99.7404 260.4054 13.21827628132661
ONEWEB-0590             
1 54656U 22166Q   25238.91251933  .00000048  00000+0  84178-4 0  9999
2 54656  87.9236 302.6908 0002075 111.0067 249.1289 13.21824611132652
ONEWEB-0591             
1 54657U 22166R   25238.92526068  .00000041  00000+0  67145-4 0  9993
2 54657  87.9239 302.7120 0002204  99.9825 260.1558 13.21828854132681
ONEWEB-0592             
1 54658U 22166S   25238.70133088  .00000004  00000+0 -22466-4 0  9993
2 54658  87.9246 302.7101 0002116  99.3627 260.7746 13.21827314132534
